IRIDIUM 26              
1 24903U 97043A   25130.51778858  .00000480  00000+0  15508-3 0  9994
2 24903  86.3929 126.4490 0002209  94.0729 266.0721 14.37114725451332
DUMMY MASS 1            
1 24925U 97048A   25130.79908235  .00000437  00000+0  45776-4 0  9990
2 24925  86.3348 152.6156 0004232 284.4039  75.6716 14.86957192499818
DUMMY MASS 2            
1 24926U 97048B   25130.55308351  .00000435  00000+0  45830-4 0  9997
2 24926  86.3351 154.3287 0005240 301.6479  58.4234 14.86709725499559
IRIDIUM 29              
1 24944U 97051A   25130.52245083  .00000443  00000+0  14441-3 0  9992
2 24944  86.3973 159.6920 0002465  88.2077 271.9402 14.36436675448086
IRIDIUM 33              
1 24946U 97051C   25130.81174116  .00000345  00000+0  11454-3 0  9996
2 24946  86.3886 158.8277 0007405 183.5487 176.5658 14.34871107447397
IRIDIUM 28              
1 24948U 97051E   25130.79880713  .00000387  00000+0  12292-3 0  9999
2 24948  86.3974 157.1149 0002161 102.6922 257.4517 14.37360791448543
IRIDIUM 36              
1 24967U 97056C   25130.69831724  .00000428  00000+0  13629-3 0  9993
2 24967  86.4015 188.7327 0002504  98.5590 261.5891 14.37581083446834
